NORAD_CAT_ID,OBJECT_NAME,OBJECT_TYPE,EPOCH,MEAN_MOTION,ECCENTRICITY,INCLINATION,RA_OF_ASC_NODE,ARG_OF_PERICENTER,MEAN_ANOMALY,BSTAR,MEAN_MOTION_DOT,MEAN_MOTION_DDOT,TLE_LINE0,TLE_LINE1,TLE_LINE2,SEMIMAJOR_AXIS,PERIOD,APOGEE,PERIGEE,DECAYED
51748.0,STARLINK-3501,PAYLOAD,2022-10-11 01:31:42,15.08834191,0.0002073,53.2161,140.963,48.8651,311.2519,5.1748e-05,5.35e-06,0.0,0 STARLINK-3501,1 51748U 22016AL  22284.06369050  .00000535  00000-0  51748-4 0  9995,2 51748  53.2161 140.9630 0002073  48.8651 311.2519 15.08834191 35653,6917.898,95.438,541.197,538.3290000000002,0.0
51748.0,STARLINK-3501,PAYLOAD,2022-10-11 17:25:34,15.08832366,0.0002245,53.2152,137.9892,45.9928,314.1249,-9.0698e-05,-1.731e-05,0.0,0 STARLINK-3501,1 51748U 22016AL  22284.72609869 -.00001731  00000-0 -90698-4 0  9991,2 51748  53.2152 137.9892 0002245  45.9928 314.1249 15.08832366 35750,6917.904,95.438,541.322,538.216,0.0
51748.0,STARLINK-3501,PAYLOAD,2022-10-12 07:44:02,15.08844221,0.0002183,53.2161,135.3137,48.5618,311.5561,-5.3618e-05,-1.142e-05,0.0,0 STARLINK-3501,1 51748U 22016AL  22285.32225119 -.00001142  00000-0 -53618-4 0  9997,2 51748  53.2161 135.3137 0002183  48.5618 311.5561 15.08844221 36909,6917.8669999999975,95.437,541.243,538.222,0.0
51748.0,STARLINK-3501,PAYLOAD,2022-10-13 01:13:16,15.0885156,0.0001921,53.2158,132.0404,51.1492,308.9671,-0.00011755,-2.159e-05,0.0,0 STARLINK-3501,1 51748U 22016AL  22286.05088844 -.00002159  00000-0 -11755-3 0  9994,2 51748  53.2158 132.0404 0001921  51.1492 308.9671 15.08851560 35955,6917.845,95.437,541.039,538.381,0.0
51748.0,STARLINK-3501,PAYLOAD,2022-10-13 15:31:45,15.0883168,0.0001733,53.2164,129.3633,51.1895,308.9252,5.1257e-05,5.28e-06,0.0,0 STARLINK-3501,1 51748U 22016AL  22286.64705930  .00000528  00000-0  51257-4 0  9999,2 51748  53.2164 129.3633 0001733  51.1895 308.9252 15.08831680 37108,6917.906,95.438,540.97,538.572,0.0
51748.0,STARLINK-3501,PAYLOAD,2022-10-13 20:17:54,15.08836773,0.0001994,53.2159,128.4725,49.6483,310.4683,0.00011043,1.47e-05,0.0,0 STARLINK-3501,1 51748U 22016AL  22286.84577527  .00001470  00000-0  11043-3 0  9995,2 51748  53.2159 128.4725 0001994  49.6483 310.4683 15.08836773 36077,6917.89,95.438,541.135,538.376,0.0
51748.0,STARLINK-3501,PAYLOAD,2022-10-14 01:04:04,15.08839326,0.0002043,53.2159,127.5806,50.4624,309.6549,0.00012933,1.771e-05,0.0,0 STARLINK-3501,1 51748U 22016AL  22287.04449358  .00001771  00000-0  12933-3 0  9991,2 51748  53.2159 127.5806 0002043  50.4624 309.6549 15.08839326 37169,6917.882,95.438,541.161,538.3340000000002,0.0
51748.0,STARLINK-3501,PAYLOAD,2022-10-14 20:08:42,15.08839729,0.0002032,53.2153,124.0116,51.4237,308.6937,2.3772e-05,9.000000000000002e-07,0.0,0 STARLINK-3501,1 51748U 22016AL  22287.83937528  .00000090  00000-0  23772-4 0  9996,2 51748  53.2153 124.0116 0002032  51.4237 308.6937 15.08839729 36221,6917.880999999999,95.438,541.1519999999998,538.341,0.0
51748.0,STARLINK-3501,PAYLOAD,2022-10-15 00:54:51,15.08830761,0.0001996,53.2157,123.1201,48.5996,311.5168,1.2796e-05,-8.5e-07,0.0,0 STARLINK-3501,1 51748U 22016AL  22288.03810122 -.00000085  00000-0  12796-4 0  9998,2 51748  53.2157 123.1201 0001996  48.5996 311.5168 15.08830761 37314,6917.909000000002,95.438,541.154,538.393,0.0
51748.0,STARLINK-3501,PAYLOAD,2022-10-15 13:37:56,15.08836314,0.0001993,53.2155,120.7411,49.1412,310.9753,4.1012e-05,3.65e-06,0.0,0 STARLINK-3501,1 51748U 22016AL  22288.56801839  .00000365  00000-0  41012-4 0  9994,2 51748  53.2155 120.7411 0001993  49.1412 310.9753 15.08836314 36339,6917.892,95.438,541.135,538.378,0.0
51748.0,STARLINK-3501,PAYLOAD,2022-10-15 19:59:29,15.0884308,0.0001894,53.2165,119.5514,42.245,317.8688,2.9865e-05,1.87e-06,0.0,0 STARLINK-3501,1 51748U 22016AL  22288.83297457  .00000187  00000-0  29865-4 0  9993,2 51748  53.2165 119.5514 0001894  42.2450 317.8688 15.08843080 37439,6917.871,95.437,541.0459999999998,538.4259999999998,0.0
51748.0,STARLINK-3501,PAYLOAD,2022-10-16 19:50:16,15.08856571,0.0001864,53.2165,115.0909,51.9687,308.1473,-0.00022908,-3.934e-05,0.0,0 STARLINK-3501,1 51748U 22016AL  22289.82657436 -.00003934  00000-0 -22908-3 0  9995,2 51748  53.2165 115.0909 0001864  51.9687 308.1473 15.08856571 36527,6917.83,95.437,540.984,538.405,0.0
51748.0,STARLINK-3501,PAYLOAD,2022-10-16 21:25:39,15.08859448,0.0001864,53.2164,114.7935,52.3617,307.7544,-0.00025774,-4.39e-05,0.0,0 STARLINK-3501,1 51748U 22016AL  22289.89281273 -.00004390  00000-0 -25774-3 0  9995,2 51748  53.2164 114.7935 0001864  52.3617 307.7544 15.08859448 36530,6917.821,95.436,540.975,538.396,0.0
51748.0,STARLINK-3501,PAYLOAD,2022-10-17 19:41:03,15.08835146,0.0002014,53.2161,110.6295,39.194,320.9198,4.0891e-06,-2.23e-06,0.0,0 STARLINK-3501,1 51748U 22016AL  22290.82018189 -.00000223  00000-0  40891-5 0  9993,2 51748  53.2161 110.6295 0002014  39.1940 320.9198 15.08835146 36677,6917.895,95.438,541.153,538.367,0.0
51748.0,STARLINK-3501,PAYLOAD,2022-10-18 11:34:54,15.08837604,0.0001921,53.2162,107.6558,45.8248,314.2902,3.7259e-05,3.05e-06,0.0,0 STARLINK-3501,1 51748U 22016AL  22291.48258016  .00000305  00000-0  37259-4 0  9994,2 51748  53.2162 107.6558 0001921  45.8248 314.2902 15.08837604 36778,6917.888000000001,95.438,541.082,538.424,0.0
51748.0,STARLINK-3501,PAYLOAD,2022-10-18 17:56:27,15.0883853,0.0001933,53.2162,106.4663,46.1883,313.9268,4.1402e-05,3.71e-06,0.0,0 STARLINK-3501,1 51748U 22016AL  22291.74753969  .00000371  00000-0  41402-4 0  9998,2 51748  53.2162 106.4663 0001933  46.1883 313.9268 15.08838530 36819,6917.885,95.438,541.087,538.413,0.0
51748.0,STARLINK-3501,PAYLOAD,2022-10-19 11:25:42,15.08827289,0.0001898,53.2161,103.1961,45.5535,314.5612,5.9952e-06,-1.93e-06,0.0,0 STARLINK-3501,1 51748U 22016AL  22292.47619007 -.00000193  00000-0  59952-5 0  9996,2 51748  53.2161 103.1961 0001898  45.5535 314.5612 15.08827289 36921,6917.919,95.438,541.097,538.471,0.0
51748.0,STARLINK-3501,PAYLOAD,2022-10-19 17:47:15,15.08829678,0.0001915,53.2161,102.0067,46.0587,314.0562,2.54e-05,1.16e-06,0.0,0 STARLINK-3501,1 51748U 22016AL  22292.74114966  .00000116  00000-0  25400-4 0  9994,2 51748  53.2161 102.0067 0001915  46.0587 314.0562 15.08829678 36966,6917.9119999999975,95.438,541.102,538.452,0.0
51748.0,STARLINK-3501,PAYLOAD,2022-10-19 22:33:24,15.08837139,0.0002008,53.2165,101.1145,47.0221,313.0939,7.984399999999999e-05,9.83e-06,0.0,0 STARLINK-3501,1 51748U 22016AL  22292.93986413  .00000983  00000-0  79844-4 0  9992,2 51748  53.2165 101.1145 0002008  47.0221 313.0939 15.08837139 36998,6917.889,95.438,541.143,538.365,0.0
51748.0,STARLINK-3501,PAYLOAD,2022-10-20 20:48:47,15.088544,0.0002173,53.2162,96.9508,55.0277,305.0919,-3.0713e-05,-7.77e-06,0.0,0 STARLINK-3501,1 51748U 22016AL  22293.86721670 -.00000777  00000-0 -30713-4 0  9992,2 51748  53.2162  96.9508 0002173  55.0277 305.0919 15.08854400 38195,6917.8359999999975,95.437,541.205,538.198,0.0
51748.0,STARLINK-3501,PAYLOAD,2022-10-21 22:14:58,15.08841807,0.0002244,53.2162,92.1924,53.7126,306.4073,6.3922e-05,7.29e-06,0.0,0 STARLINK-3501,1 51748U 22016AL  22294.92706181  .00000729  00000-0  63922-4 0  9993,2 51748  53.2162  92.1924 0002244  53.7126 306.4073 15.08841807 38353,6917.875,95.437,541.2919999999998,538.187,0.0
51748.0,STARLINK-3501,PAYLOAD,2022-10-22 12:33:26,15.08843054,0.0002418,53.2151,89.5167,55.8787,304.2434,1.6575e-05,-2.5e-07,0.0,0 STARLINK-3501,1 51748U 22016AL  22295.52322176 -.00000025  00000-0  16575-4 0  9990,2 51748  53.2151  89.5167 0002418  55.8787 304.2434 15.08843054 37384,6917.871,95.437,541.409,538.063,0.0
51748.0,STARLINK-3501,PAYLOAD,2022-10-22 20:30:22,15.08844805,0.0002110999999999,53.217,88.0297,48.0349,312.0823,-5.4844e-05,-1.161e-05,0.0,0 STARLINK-3501,1 51748U 22016AL  22295.85442207 -.00001161  00000-0 -54844-4 0  9998,2 51748  53.2170  88.0297 0002111  48.0349 312.0823 15.08844805 37431,6917.866,95.437,541.191,538.27,0.0
51748.0,STARLINK-3501,PAYLOAD,2022-10-23 12:24:12,15.08845627,0.0002053,53.2171,85.0563,48.8442,311.2727,8.8174e-05,1.116e-05,0.0,0 STARLINK-3501,1 51748U 22016AL  22296.51681318  .00001116  00000-0  88174-4 0  9991,2 51748  53.2171  85.0563 0002053  48.8442 311.2727 15.08845627 37530,6917.863,95.437,541.148,538.308,0.0
51748.0,STARLINK-3501,PAYLOAD,2022-10-23 18:45:45,15.08840509,0.000205,53.2171,83.867,46.5672,313.5491,4.2103e-05,3.82e-06,0.0,0 STARLINK-3501,1 51748U 22016AL  22296.78177697  .00000382  00000-0  42103-4 0  9996,2 51748  53.2171  83.8670 0002050  46.5672 313.5491 15.08840509 37573,6917.879,95.438,541.1619999999998,538.326,0.0
51748.0,STARLINK-3501,PAYLOAD,2022-10-23 20:21:08,15.08838708,0.0002052,53.2171,83.5697,47.7282,312.3884,2.5215e-05,1.13e-06,0.0,0 STARLINK-3501,1 51748U 22016AL  22296.84801866  .00000113  00000-0  25215-4 0  9992,2 51748  53.2171  83.5697 0002052  47.7282 312.3884 15.08838708 38641,6917.884,95.438,541.169,538.33,0.0
51748.0,STARLINK-3501,PAYLOAD,2022-10-24 02:42:41,15.0883932,0.0002046999999999,53.2172,82.3803,47.3302,312.7862,2.9191e-05,1.76e-06,0.0,0 STARLINK-3501,1 51748U 22016AL  22297.11297828  .00000176  00000-0  29191-4 0  9996,2 51748  53.2172  82.3803 0002047  47.3302 312.7862 15.08839320 37629,6917.882,95.438,541.164,538.331,0.0
51748.0,STARLINK-3501,PAYLOAD,2022-10-24 18:36:33,15.08829376,0.0002106,53.2173,79.4068,48.0713,312.0458,-2.7337e-05,-7.23e-06,0.0,0 STARLINK-3501,1 51748U 22016AL  22297.77538899 -.00000723  00000-0 -27337-4 0  9994,2 51748  53.2173  79.4068 0002106  48.0713 312.0458 15.08829376 38782,6917.913000000001,95.438,541.235,538.321,0.0
51748.0,STARLINK-3501,PAYLOAD,2022-10-25 12:05:47,15.08842142,0.0002118,53.2171,76.1357,48.2111,311.9062,-3.5289e-05,-8.5e-06,0.0,0 STARLINK-3501,1 51748U 22016AL  22298.50402304 -.00000850  00000-0 -35289-4 0  9993,2 51748  53.2171  76.1357 0002118  48.2111 311.9062 15.08842142 37832,6917.874,95.437,541.2040000000002,538.274,0.0
